start=new Date('2022-04-26T00:00:00.000Z').valueOf();
sats=[{"MEAN_ELEMENT_THEORY":"SGP4","COUNTRY_CODE":"US","MEAN_MOTION_DDOT":"0.0000000000000","EPOCH":"2022-04-25T22:00:00.999936","BSTAR":"0.00024154000000","LAUNCH_DATE":"2022-03-03","ELEMENT_SET_NO":"999","ECCENTRICITY":"0.00017490","PERIOD":"92.914","REF_FRAME":"TEME","INCLINATION":"53.2165","ARG_OF_PERICENTER":"53.1640","OBJECT_ID":"2022-022V","NORAD_CAT_ID":"51871","REV_AT_EPOCH":"963","SEMIMAJOR_AXIS":"6795.401","TLE_LINE2":"2 51871  53.2165 241.8860 0001749  53.1640  17.7351 15.49815789  9634","GP_ID":"202003513","RA_OF_ASC_NODE":"241.8860","PERIAPSIS":"416.078","RCS_SIZE":"LARGE","MEAN_ANOMALY":"17.7351","OBJECT_NAME":"STARLINK-3567","TLE_LINE1":"1 51871U 22022V   22115.91667824  .00013247  00000-0  24154-3 0  9990","DECAY_DATE":null,"CENTER_NAME":"EARTH","TIME_SYSTEM":"UTC","MEAN_MOTION_DOT":"0.00013247","APOAPSIS":"418.455","SITE":"AFETR","FILE":"3415960","CLASSIFICATION_TYPE":"U","MEAN_MOTION":"15.49815789","EPHEMERIS_TYPE":"0","OBJECT_TYPE":"PAYLOAD"},{"BSTAR":"-0.00015581000000","LAUNCH_DATE":"2022-03-03","EPOCH":"2022-04-25T22:00:00.999936","ECCENTRICITY":"0.00014640","ELEMENT_SET_NO":"999","COUNTRY_CODE":"US","MEAN_ELEMENT_THEORY":"SGP4","MEAN_MOTION_DDOT":"0.0000000000000","NORAD_CAT_ID":"51872","OBJECT_ID":"2022-022W","SEMIMAJOR_AXIS":"6795.315","REV_AT_EPOCH":"370","PERIOD":"92.912","REF_FRAME":"TEME","ARG_OF_PERICENTER":"43.9260","INCLINATION":"53.2129","TLE_LINE1":"1 51872U 22022W   22115.91667824 -.00009272  00000-0 -15581-3 0  9990","MEAN_ANOMALY":"11.6632","OBJECT_NAME":"STARLINK-3554","CENTER_NAME":"EARTH","TIME_SYSTEM":"UTC","MEAN_MOTION_DOT":"-0.00009272","DECAY_DATE":null,"RA_OF_ASC_NODE":"241.8978","PERIAPSIS":"416.185","TLE_LINE2":"2 51872  53.2129 241.8978 0001464  43.9260  11.6632 15.49845502  3707","GP_ID":"202030530","RCS_SIZE":"LARGE","OBJECT_TYPE":"PAYLOAD","EPHEMERIS_TYPE":"0","APOAPSIS":"418.174","MEAN_MOTION":"15.49845502","FILE":"3416090","SITE":"AFETR","CLASSIFICATION_TYPE":"U"},{"APOAPSIS":"418.172","MEAN_MOTION":"15.49911586","FILE":"3416090","SITE":"AFETR","CLASSIFICATION_TYPE":"U","OBJECT_TYPE":"PAYLOAD","EPHEMERIS_TYPE":"0","RA_OF_ASC_NODE":"241.8825","PERIAPSIS":"415.801","TLE_LINE2":"2 51873  53.2158 241.8825 0001745  50.1171  43.7146 15.49911586  3706","GP_ID":"202030102","RCS_SIZE":"LARGE","TLE_LINE1":"1 51873U 22022X   22115.91667824 -.00069013  00000-0 -12175-2 0  9995","OBJECT_NAME":"STARLINK-3582","MEAN_ANOMALY":"43.7146","CENTER_NAME":"EARTH","TIME_SYSTEM":"UTC","MEAN_MOTION_DOT":"-0.00069013","DECAY_DATE":null,"PERIOD":"92.909","REF_FRAME":"TEME","ARG_OF_PERICENTER":"50.1171","INCLINATION":"53.2158","NORAD_CAT_ID":"51873","OBJECT_ID":"2022-022X","SEMIMAJOR_AXIS":"6795.121","REV_AT_EPOCH":"370","COUNTRY_CODE":"US","MEAN_ELEMENT_THEORY":"SGP4","MEAN_MOTION_DDOT":"0.0000000000000","LAUNCH_DATE":"2022-03-03","BSTAR":"-0.00121750000000","EPOCH":"2022-04-25T22:00:00.999936","ECCENTRICITY":"0.00017450","ELEMENT_SET_NO":"999"},{"OBJECT_NAME":"STARLINK-3574","MEAN_ANOMALY":"29.6693","TLE_LINE1":"1 51874U 22022Y   22115.91667824  .00010717  00000-0  19620-3 0  9994","DECAY_DATE":null,"CENTER_NAME":"EARTH","MEAN_MOTION_DOT":"0.00010717","TIME_SYSTEM":"UTC","TLE_LINE2":"2 51874  53.2157 241.8857 0001779  48.7307  29.6693 15.49932010  9589","GP_ID":"202003133","RA_OF_ASC_NODE":"241.8857","PERIAPSIS":"415.718","RCS_SIZE":"LARGE","EPHEMERIS_TYPE":"0","OBJECT_TYPE":"PAYLOAD","APOAPSIS":"418.136","FILE":"3415962","SITE":"AFETR","CLASSIFICATION_TYPE":"U","MEAN_MOTION":"15.49932010","EPOCH":"2022-04-25T22:00:00.999936","LAUNCH_DATE":"2022-03-03","BSTAR":"0.00019620000000","ELEMENT_SET_NO":"999","ECCENTRICITY":"0.00017790","MEAN_ELEMENT_THEORY":"SGP4","COUNTRY_CODE":"US","MEAN_MOTION_DDOT":"0.0000000000000","OBJECT_ID":"2022-022Y","NORAD_CAT_ID":"51874","REV_AT_EPOCH":"958","SEMIMAJOR_AXIS":"6795.062","PERIOD":"92.907","REF_FRAME":"TEME","INCLINATION":"53.2157","ARG_OF_PERICENTER":"48.7307"},{"TLE_LINE2":"2 51875  53.2151 241.8814 0002115  41.9336  64.9725 15.49872042  3703","GP_ID":"202030354","RA_OF_ASC_NODE":"241.8814","PERIAPSIS":"415.665","RCS_SIZE":"LARGE","MEAN_ANOMALY":"64.9725","OBJECT_NAME":"STARLINK-3585","TLE_LINE1":"1 51875U 22022Z   22115.91667824  .00010338  00000-0  18995-3 0  9998","DECAY_DATE":null,"CENTER_NAME":"EARTH","MEAN_MOTION_DOT":"0.00010338","TIME_SYSTEM":"UTC","APOAPSIS":"418.539","SITE":"AFETR","FILE":"3416090","CLASSIFICATION_TYPE":"U","MEAN_MOTION":"15.49872042","EPHEMERIS_TYPE":"0","OBJECT_TYPE":"PAYLOAD","MEAN_ELEMENT_THEORY":"SGP4","COUNTRY_CODE":"US","MEAN_MOTION_DDOT":"0.0000000000000","EPOCH":"2022-04-25T22:00:00.999936","LAUNCH_DATE":"2022-03-03","BSTAR":"0.00018995000000","ELEMENT_SET_NO":"999","ECCENTRICITY":"0.00021150","PERIOD":"92.911","REF_FRAME":"TEME","ARG_OF_PERICENTER":"41.9336","INCLINATION":"53.2151","OBJECT_ID":"2022-022Z","NORAD_CAT_ID":"51875","REV_AT_EPOCH":"370","SEMIMAJOR_AXIS":"6795.237"},{"OBJECT_ID":"2022-022AA","NORAD_CAT_ID":"51876","REV_AT_EPOCH":"958","SEMIMAJOR_AXIS":"6795.225","PERIOD":"92.911","ARG_OF_PERICENTER":"51.3563","INCLINATION":"53.2161","REF_FRAME":"TEME","EPOCH":"2022-04-25T22:00:00.999936","BSTAR":"0.00020528000000","LAUNCH_DATE":"2022-03-03","ELEMENT_SET_NO":"999","ECCENTRICITY":"0.00019370","MEAN_ELEMENT_THEORY":"SGP4","COUNTRY_CODE":"US","MEAN_MOTION_DDOT":"0.0000000000000","EPHEMERIS_TYPE":"0","OBJECT_TYPE":"PAYLOAD","APOAPSIS":"418.406","CLASSIFICATION_TYPE":"U","FILE":"3415962","SITE":"AFETR","MEAN_MOTION":"15.49876214","OBJECT_NAME":"STARLINK-3583","MEAN_ANOMALY":"34.7817","TLE_LINE1":"1 51876U 22022AA  22115.91667824  .00011212  00000-0  20528-3 0  9996","DECAY_DATE":null,"TIME_SYSTEM":"UTC","MEAN_MOTION_DOT":"0.00011212","CENTER_NAME":"EARTH","TLE_LINE2":"2 51876  53.2161 241.8833 0001937  51.3563  34.7817 15.49876214  9588","GP_ID":"202003525","PERIAPSIS":"415.774","RA_OF_ASC_NODE":"241.8833","RCS_SIZE":"LARGE"},{"CENTER_NAME":"EARTH","TIME_SYSTEM":"UTC","MEAN_MOTION_DOT":"-0.00014914","DECAY_DATE":null,"TLE_LINE1":"1 51877U 22022AB  22115.91667824 -.00014914  00000-0 -10200-3 0  9997","MEAN_ANOMALY":"92.5060","OBJECT_NAME":"STARLINK-3556","RCS_SIZE":"LARGE","RA_OF_ASC_NODE":"240.3216","PERIAPSIS":"348.251","TLE_LINE2":"2 51877  53.2121 240.3216 0002233  27.2129  92.5060 15.73202287  3704","GP_ID":"202030440","OBJECT_TYPE":"PAYLOAD","EPHEMERIS_TYPE":"0","MEAN_MOTION":"15.73202287","FILE":"3416090","SITE":"AFETR","CLASSIFICATION_TYPE":"U","APOAPSIS":"351.256","ECCENTRICITY":"0.00022330","ELEMENT_SET_NO":"999","LAUNCH_DATE":"2022-03-03","BSTAR":"-0.00010200000000","EPOCH":"2022-04-25T22:00:00.999936","MEAN_MOTION_DDOT":"0.0000000000000","COUNTRY_CODE":"US","MEAN_ELEMENT_THEORY":"SGP4","SEMIMAJOR_AXIS":"6727.889","REV_AT_EPOCH":"370","NORAD_CAT_ID":"51877","OBJECT_ID":"2022-022AB","REF_FRAME":"TEME","INCLINATION":"53.2121","ARG_OF_PERICENTER":"27.2129","PERIOD":"91.533"},{"PERIOD":"92.911","INCLINATION":"53.2163","ARG_OF_PERICENTER":"52.5273","REF_FRAME":"TEME","NORAD_CAT_ID":"51878","OBJECT_ID":"2022-022AC","SEMIMAJOR_AXIS":"6795.222","REV_AT_EPOCH":"370","COUNTRY_CODE":"US","MEAN_ELEMENT_THEORY":"SGP4","MEAN_MOTION_DDOT":"0.0000000000000","BSTAR":"0.00019830000000","LAUNCH_DATE":"2022-03-03","EPOCH":"2022-04-25T22:00:00.999936","ECCENTRICITY":"0.00019330","ELEMENT_SET_NO":"999","APOAPSIS":"418.400","MEAN_MOTION":"15.49877202","CLASSIFICATION_TYPE":"U","FILE":"3416090","SITE":"AFETR","OBJECT_TYPE":"PAYLOAD","EPHEMERIS_TYPE":"0","PERIAPSIS":"415.773","RA_OF_ASC_NODE":"241.8822","GP_ID":"202030615","TLE_LINE2":"2 51878  53.2163 241.8822 0001933  52.5273  48.6211 15.49877202  3705","RCS_SIZE":"LARGE","TLE_LINE1":"1 51878U 22022AC  22115.91667824  .00010815  00000-0  19830-3 0  9990","MEAN_ANOMALY":"48.6211","OBJECT_NAME":"STARLINK-3575","MEAN_MOTION_DOT":"0.00010815","TIME_SYSTEM":"UTC","CENTER_NAME":"EARTH","DECAY_DATE":null},{"MEAN_ELEMENT_THEORY":"SGP4","COUNTRY_CODE":"US","MEAN_MOTION_DDOT":"0.0000000000000","EPOCH":"2022-04-25T22:00:00.999936","LAUNCH_DATE":"2022-03-03","BSTAR":"0.00009982900000","ELEMENT_SET_NO":"999","ECCENTRICITY":"0.00018140","PERIOD":"91.533","INCLINATION":"53.2121","ARG_OF_PERICENTER":"28.4333","REF_FRAME":"TEME","OBJECT_ID":"2022-022AD","NORAD_CAT_ID":"51879","REV_AT_EPOCH":"370","SEMIMAJOR_AXIS":"6727.905","TLE_LINE2":"2 51879  53.2121 240.3202 0001814  28.4333  92.5290 15.73196725  3709","GP_ID":"202030018","PERIAPSIS":"348.549","RA_OF_ASC_NODE":"240.3202","RCS_SIZE":"LARGE","OBJECT_NAME":"STARLINK-3572","MEAN_ANOMALY":"92.5290","TLE_LINE1":"1 51879U 22022AD  22115.91667824  .00013410  00000-0  99829-4 0  9992","DECAY_DATE":null,"TIME_SYSTEM":"UTC","MEAN_MOTION_DOT":"0.00013410","CENTER_NAME":"EARTH","APOAPSIS":"350.990","CLASSIFICATION_TYPE":"U","SITE":"AFETR","FILE":"3416090","MEAN_MOTION":"15.73196725","EPHEMERIS_TYPE":"0","OBJECT_TYPE":"PAYLOAD"},{"APOAPSIS":"418.172","CLASSIFICATION_TYPE":"U","FILE":"3416023","SITE":"AFETR","MEAN_MOTION":"15.49854454","EPHEMERIS_TYPE":"0","OBJECT_TYPE":"PAYLOAD","GP_ID":"202005074","TLE_LINE2":"2 51880  53.2128 241.8990 0001499  57.5616 344.8771 15.49854454  9586","PERIAPSIS":"416.135","RA_OF_ASC_NODE":"241.8990","RCS_SIZE":"LARGE","MEAN_ANOMALY":"344.8771","OBJECT_NAME":"STARLINK-3566","TLE_LINE1":"1 51880U 22022AE  22115.91667824  .00010436  00000-0  19178-3 0  9997","DECAY_DATE":null,"MEAN_MOTION_DOT":"0.00010436","TIME_SYSTEM":"UTC","CENTER_NAME":"EARTH","PERIOD":"92.912","ARG_OF_PERICENTER":"57.5616","INCLINATION":"53.2128","REF_FRAME":"TEME","OBJECT_ID":"2022-022AE","NORAD_CAT_ID":"51880","REV_AT_EPOCH":"958","SEMIMAJOR_AXIS":"6795.288","MEAN_ELEMENT_THEORY":"SGP4","COUNTRY_CODE":"US","MEAN_MOTION_DDOT":"0.0000000000000","EPOCH":"2022-04-25T22:00:00.999936","LAUNCH_DATE":"2022-03-03","BSTAR":"0.00019178000000","ELEMENT_SET_NO":"999","ECCENTRICITY":"0.00014990"}];
